[{"OBJECT_NAME":"STARLINK-35719","OBJECT_ID":"2025-303W","EPOCH":"2026-03-09T09:32:44.047392","MEAN_MOTION":15.27598093,"ECCENTRICITY":0.00016361,"INCLINATION":43.0006,"RA_OF_ASC_NODE":312.0919,"ARG_OF_PERICENTER":257.2789,"MEAN_ANOMALY":102.788,"EPHEMERIS_TYPE":0,"CLASSIFICATION_TYPE":"U","NORAD_CAT_ID":67183,"ELEMENT_SET_NO":999,"REV_AT_EPOCH":1269,"BSTAR":0.00093998371,"MEAN_MOTION_DOT":0.00025709,"MEAN_MOTION_DDOT":0},{"OBJECT_NAME":"CZ-2C DEB","OBJECT_ID":"2018-056F","EPOCH":"2026-03-09T10:57:26.102304","MEAN_MOTION":15.27739248,"ECCENTRICITY":0.00119172,"INCLINATION":98.1188,"RA_OF_ASC_NODE":250.032,"ARG_OF_PERICENTER":4.6998,"MEAN_ANOMALY":355.4349,"EPHEMERIS_TYPE":0,"CLASSIFICATION_TYPE":"U","NORAD_CAT_ID":43534,"ELEMENT_SET_NO":999,"REV_AT_EPOCH":41855,"BSTAR":0.00085537155,"MEAN_MOTION_DOT":0.00023193,"MEAN_MOTION_DDOT":0}]
